STARLINK-35865          
1 67826U 26033F   26064.01872260  .00472108  00000+0  21185-2 0  9997
2 67826  42.9970 300.0985 0001693 302.0354  58.0353 15.82077616  3889
STARLINK-36289          
1 67827U 26033G   26064.01796438  .00465139  00000+0  20833-2 0  9995
2 67827  42.9969 300.0924 0001775 277.7407  82.3263 15.82135964  3880
STARLINK-36670          
1 67828U 26033H   26064.01722344  .00432339  00000+0  19504-2 0  9990
2 67828  42.9985 300.0860 0001551 335.6577  24.4221 15.82065223  3883
STARLINK-36144          
1 67829U 26033J   26064.07959913  .00352875  00000+0  16046-2 0  9995
2 67829  42.9973 299.6932 0001852 279.8511  80.2151 15.82100990  3899
STARLINK-36611          
1 67830U 26033K   26064.01572099  .00403109  00000+0  18244-2 0  9996
2 67830  42.9977 300.0739 0001883 263.4608  96.6049 15.82071992  3882
STARLINK-36661          
1 67831U 26033L   26064.01497654  .00406226  00000+0  18391-2 0  9996
2 67831  42.9978 300.0675 0001361 329.7101  30.3692 15.82056109  3880
STARLINK-36662          
1 67832U 26033M   26064.08606281  .00446221  00000+0  17891-2 0  9995
2 67832  42.9953 298.8371 0002593 251.1236 108.9355 15.84529734  3908
STARLINK-36659          
1 67833U 26033N   26064.07734833  .00360521  00000+0  16373-2 0  9992
2 67833  42.9969 299.6749 0002005 309.0876  50.9818 15.82107409  3892
STARLINK-36655          
1 67834U 26033P   26064.07659921  .00336588  00000+0  15328-2 0  9992
2 67834  42.9973 299.6686 0002247 282.5917  77.4703 15.82111216  3895
STARLINK-36657          
1 67835U 26033Q   26064.01271961  .00284538  00000+0  13063-2 0  9992
2 67835  42.9971 300.0494 0001901 271.4071  88.6583 15.82074126  3889
STARLINK-36650          
1 67836U 26033R   26064.01197836  .00453602  00000+0  20377-2 0  9997
2 67836  42.9971 300.0431 0001300 334.7899  25.2909 15.82100411  3881
STARLINK-36649          
1 67837U 26033S   26064.07435322  .00286481  00000+0  13148-2 0  9996
2 67837  42.9972 299.6505 0002110 273.9612  86.1018 15.82076201  3892
