CCSDS_OMM_VERS = 2.0
CREATION_DATE  = 
ORIGINATOR     = 

OBJECT_NAME    = STARLINK-35865
OBJECT_ID      = 2026-033F
CENTER_NAME    = EARTH
REF_FRAME      = TEME
TIME_SYSTEM    = UTC
MEAN_ELEMENT_THEORY = SGP/SGP4

EPOCH          = 2026-03-05T00:26:57.632640
MEAN_MOTION    = 15.82077616
ECCENTRICITY   = .0001693
INCLINATION    = 42.9970
RA_OF_ASC_NODE = 300.0985
ARG_OF_PERICENTER = 302.0354
MEAN_ANOMALY   = 58.0353

EPHEMERIS_TYPE = 0
CLASSIFICATION_TYPE = U
NORAD_CAT_ID   = 67826
ELEMENT_SET_NO = 999
REV_AT_EPOCH   = 388
BSTAR          = .21185E-2
MEAN_MOTION_DOT = .472108E-2
MEAN_MOTION_DDOT = 0

CCSDS_OMM_VERS = 2.0
CREATION_DATE  = 
ORIGINATOR     = 

OBJECT_NAME    = STARLINK-36289
OBJECT_ID      = 2026-033G
CENTER_NAME    = EARTH
REF_FRAME      = TEME
TIME_SYSTEM    = UTC
MEAN_ELEMENT_THEORY = SGP/SGP4

EPOCH          = 2026-03-05T00:25:52.122432
MEAN_MOTION    = 15.82135964
ECCENTRICITY   = .0001775
INCLINATION    = 42.9969
RA_OF_ASC_NODE = 300.0924
ARG_OF_PERICENTER = 277.7407
MEAN_ANOMALY   = 82.3263

EPHEMERIS_TYPE = 0
CLASSIFICATION_TYPE = U
NORAD_CAT_ID   = 67827
ELEMENT_SET_NO = 999
REV_AT_EPOCH   = 388
BSTAR          = .20833E-2
MEAN_MOTION_DOT = .465139E-2
MEAN_MOTION_DDOT = 0

CCSDS_OMM_VERS = 2.0
CREATION_DATE  = 
ORIGINATOR     = 

OBJECT_NAME    = STARLINK-36670
OBJECT_ID      = 2026-033H
CENTER_NAME    = EARTH
REF_FRAME      = TEME
TIME_SYSTEM    = UTC
MEAN_ELEMENT_THEORY = SGP/SGP4

EPOCH          = 2026-03-05T00:24:48.105216
MEAN_MOTION    = 15.82065223
ECCENTRICITY   = .0001551
INCLINATION    = 42.9985
RA_OF_ASC_NODE = 300.0860
ARG_OF_PERICENTER = 335.6577
MEAN_ANOMALY   = 24.4221

EPHEMERIS_TYPE = 0
CLASSIFICATION_TYPE = U
NORAD_CAT_ID   = 67828
ELEMENT_SET_NO = 999
REV_AT_EPOCH   = 388
BSTAR          = .19504E-2
MEAN_MOTION_DOT = .432339E-2
MEAN_MOTION_DDOT = 0

CCSDS_OMM_VERS = 2.0
CREATION_DATE  = 
ORIGINATOR     = 

OBJECT_NAME    = STARLINK-36144
OBJECT_ID      = 2026-033J
CENTER_NAME    = EARTH
REF_FRAME      = TEME
TIME_SYSTEM    = UTC
MEAN_ELEMENT_THEORY = SGP/SGP4

EPOCH          = 2026-03-05T01:54:37.364832
MEAN_MOTION    = 15.82100990
ECCENTRICITY   = .0001852
INCLINATION    = 42.9973
RA_OF_ASC_NODE = 299.6932
ARG_OF_PERICENTER = 279.8511
MEAN_ANOMALY   = 80.2151

EPHEMERIS_TYPE = 0
CLASSIFICATION_TYPE = U
NORAD_CAT_ID   = 67829
ELEMENT_SET_NO = 999
REV_AT_EPOCH   = 389
BSTAR          = .16046E-2
MEAN_MOTION_DOT = .352875E-2
MEAN_MOTION_DDOT = 0

CCSDS_OMM_VERS = 2.0
CREATION_DATE  = 
ORIGINATOR     = 

OBJECT_NAME    = STARLINK-36611
OBJECT_ID      = 2026-033K
CENTER_NAME    = EARTH
REF_FRAME      = TEME
TIME_SYSTEM    = UTC
MEAN_ELEMENT_THEORY = SGP/SGP4

EPOCH          = 2026-03-05T00:22:38.293536
MEAN_MOTION    = 15.82071992
ECCENTRICITY   = .0001883
INCLINATION    = 42.9977
RA_OF_ASC_NODE = 300.0739
ARG_OF_PERICENTER = 263.4608
MEAN_ANOMALY   = 96.6049

EPHEMERIS_TYPE = 0
CLASSIFICATION_TYPE = U
NORAD_CAT_ID   = 67830
ELEMENT_SET_NO = 999
REV_AT_EPOCH   = 388
BSTAR          = .18244E-2
MEAN_MOTION_DOT = .403109E-2
MEAN_MOTION_DDOT = 0

CCSDS_OMM_VERS = 2.0
CREATION_DATE  = 
ORIGINATOR     = 

OBJECT_NAME    = STARLINK-36661
OBJECT_ID      = 2026-033L
CENTER_NAME    = EARTH
REF_FRAME      = TEME
TIME_SYSTEM    = UTC
MEAN_ELEMENT_THEORY = SGP/SGP4

EPOCH          = 2026-03-05T00:21:33.973056
MEAN_MOTION    = 15.82056109
ECCENTRICITY   = .0001361
INCLINATION    = 42.9978
RA_OF_ASC_NODE = 300.0675
ARG_OF_PERICENTER = 329.7101
MEAN_ANOMALY   = 30.3692

EPHEMERIS_TYPE = 0
CLASSIFICATION_TYPE = U
NORAD_CAT_ID   = 67831
ELEMENT_SET_NO = 999
REV_AT_EPOCH   = 388
BSTAR          = .18391E-2
MEAN_MOTION_DOT = .406226E-2
MEAN_MOTION_DDOT = 0

CCSDS_OMM_VERS = 2.0
CREATION_DATE  = 
ORIGINATOR     = 

OBJECT_NAME    = STARLINK-36662
OBJECT_ID      = 2026-033M
CENTER_NAME    = EARTH
REF_FRAME      = TEME
TIME_SYSTEM    = UTC
MEAN_ELEMENT_THEORY = SGP/SGP4

EPOCH          = 2026-03-05T02:03:55.826784
MEAN_MOTION    = 15.84529734
ECCENTRICITY   = .0002593
INCLINATION    = 42.9953
RA_OF_ASC_NODE = 298.8371
ARG_OF_PERICENTER = 251.1236
MEAN_ANOMALY   = 108.9355

EPHEMERIS_TYPE = 0
CLASSIFICATION_TYPE = U
NORAD_CAT_ID   = 67832
ELEMENT_SET_NO = 999
REV_AT_EPOCH   = 390
BSTAR          = .17891E-2
MEAN_MOTION_DOT = .446221E-2
MEAN_MOTION_DDOT = 0

CCSDS_OMM_VERS = 2.0
CREATION_DATE  = 
ORIGINATOR     = 

OBJECT_NAME    = STARLINK-36659
OBJECT_ID      = 2026-033N
CENTER_NAME    = EARTH
REF_FRAME      = TEME
TIME_SYSTEM    = UTC
MEAN_ELEMENT_THEORY = SGP/SGP4

EPOCH          = 2026-03-05T01:51:22.895712
MEAN_MOTION    = 15.82107409
ECCENTRICITY   = .0002005
INCLINATION    = 42.9969
RA_OF_ASC_NODE = 299.6749
ARG_OF_PERICENTER = 309.0876
MEAN_ANOMALY   = 50.9818

EPHEMERIS_TYPE = 0
CLASSIFICATION_TYPE = U
NORAD_CAT_ID   = 67833
ELEMENT_SET_NO = 999
REV_AT_EPOCH   = 389
BSTAR          = .16373E-2
MEAN_MOTION_DOT = .360521E-2
MEAN_MOTION_DDOT = 0

CCSDS_OMM_VERS = 2.0
CREATION_DATE  = 
ORIGINATOR     = 

OBJECT_NAME    = STARLINK-36655
OBJECT_ID      = 2026-033P
CENTER_NAME    = EARTH
REF_FRAME      = TEME
TIME_SYSTEM    = UTC
MEAN_ELEMENT_THEORY = SGP/SGP4

EPOCH          = 2026-03-05T01:50:18.171744
MEAN_MOTION    = 15.82111216
ECCENTRICITY   = .0002247
INCLINATION    = 42.9973
RA_OF_ASC_NODE = 299.6686
ARG_OF_PERICENTER = 282.5917
MEAN_ANOMALY   = 77.4703

EPHEMERIS_TYPE = 0
CLASSIFICATION_TYPE = U
NORAD_CAT_ID   = 67834
ELEMENT_SET_NO = 999
REV_AT_EPOCH   = 389
BSTAR          = .15328E-2
MEAN_MOTION_DOT = .336588E-2
MEAN_MOTION_DDOT = 0

CCSDS_OMM_VERS = 2.0
CREATION_DATE  = 
ORIGINATOR     = 

OBJECT_NAME    = STARLINK-36657
OBJECT_ID      = 2026-033Q
CENTER_NAME    = EARTH
REF_FRAME      = TEME
TIME_SYSTEM    = UTC
MEAN_ELEMENT_THEORY = SGP/SGP4

EPOCH          = 2026-03-05T00:18:18.974304
MEAN_MOTION    = 15.82074126
ECCENTRICITY   = .0001901
INCLINATION    = 42.9971
RA_OF_ASC_NODE = 300.0494
ARG_OF_PERICENTER = 271.4071
MEAN_ANOMALY   = 88.6583

EPHEMERIS_TYPE = 0
CLASSIFICATION_TYPE = U
NORAD_CAT_ID   = 67835
ELEMENT_SET_NO = 999
REV_AT_EPOCH   = 388
BSTAR          = .13063E-2
MEAN_MOTION_DOT = .284538E-2
MEAN_MOTION_DDOT = 0

CCSDS_OMM_VERS = 2.0
CREATION_DATE  = 
ORIGINATOR     = 

OBJECT_NAME    = STARLINK-36650
OBJECT_ID      = 2026-033R
CENTER_NAME    = EARTH
REF_FRAME      = TEME
TIME_SYSTEM    = UTC
MEAN_ELEMENT_THEORY = SGP/SGP4

EPOCH          = 2026-03-05T00:17:14.930304
MEAN_MOTION    = 15.82100411
ECCENTRICITY   = .00013
INCLINATION    = 42.9971
RA_OF_ASC_NODE = 300.0431
ARG_OF_PERICENTER = 334.7899
MEAN_ANOMALY   = 25.2909

EPHEMERIS_TYPE = 0
CLASSIFICATION_TYPE = U
NORAD_CAT_ID   = 67836
ELEMENT_SET_NO = 999
REV_AT_EPOCH   = 388
BSTAR          = .20377E-2
MEAN_MOTION_DOT = .453602E-2
MEAN_MOTION_DDOT = 0

CCSDS_OMM_VERS = 2.0
CREATION_DATE  = 
ORIGINATOR     = 

OBJECT_NAME    = STARLINK-36649
OBJECT_ID      = 2026-033S
CENTER_NAME    = EARTH
REF_FRAME      = TEME
TIME_SYSTEM    = UTC
MEAN_ELEMENT_THEORY = SGP/SGP4

EPOCH          = 2026-03-05T01:47:04.118208
MEAN_MOTION    = 15.82076201
ECCENTRICITY   = .000211
INCLINATION    = 42.9972
RA_OF_ASC_NODE = 299.6505
ARG_OF_PERICENTER = 273.9612
MEAN_ANOMALY   = 86.1018

EPHEMERIS_TYPE = 0
CLASSIFICATION_TYPE = U
NORAD_CAT_ID   = 67837
ELEMENT_SET_NO = 999
REV_AT_EPOCH   = 389
BSTAR          = .13148E-2
MEAN_MOTION_DOT = .286481E-2
MEAN_MOTION_DDOT = 0

